KUIPER-00438            
1 68940U 26098X   26204.25002315 -.00075382  00000+0 -62848-2 0  9990
2 68940  51.8943 257.0280 0004652 354.4681 332.6325 14.98460611  5729
KUIPER-00439            
1 68941U 26098Y   26204.25002315 -.00170949  00000+0 -13276-1 0  9996
2 68941  51.9013 257.0438 0004950 300.3057  80.4353 15.01755550  5466
KUIPER-00440            
1 68942U 26098Z   26203.34480756  .00022675  00000+0  74262-3 0  9999
2 68942  51.8775 259.3741 0002642 328.5179  31.5647 15.31567203 12736
KUIPER-00442            
1 68943U 26098AA  26203.00002315  .00046190  00000+0  16465-2 0  9992
2 68943  51.8808 260.5206 0002756 278.3143 218.8422 15.28453268  5670
KUIPER-00446            
1 68944U 26098AB  26204.25002315 -.01128708  00000+0 -71492-1 0  9990
2 68944  51.8920 255.4545 0002561 268.2746 142.8126 15.11455117  5412
KUIPER-00451            
1 68945U 26098AC  26204.19969344  .00001480  00000+0  24158-3 0  9991
2 68945  51.8979 263.8190 0000702  37.1399 322.9611 14.76391203 12747
KUIPER-00452            
1 68946U 26098AD  26204.25002315 -.01183608  00000+0 -60030-1 0  9998
2 68946  51.8835 254.0108 0003009 290.2504 179.0769 15.19371380  5135
KUIPER-00453            
1 68947U 26098AE  26204.25002315 -.00008108  00000+0 -26897-3 0  9994
2 68947  51.8791 253.1095 0004023 358.2201 191.0789 15.29303786  5871
KUIPER-00454            
1 68948U 26098AF  26204.17060095  .00001515  00000+0  24647-3 0  9999
2 68948  51.8994 265.2929 0003685 162.3879 197.7210 14.76441700 12729
KUIPER-00455            
1 68949U 26098AG  26204.25002315 -.00015303  00000+0 -19806-2 0  9992
2 68949  51.8992 263.6948 0001823 297.7923  99.9398 14.79980996  4972
KUIPER-00458            
1 68950U 26098AH  26204.25002315 -.00036547  00000+0 -12745-2 0  9992
2 68950  51.8791 253.3868 0002558 336.5241  50.1966 15.28961711  5485
KUIPER-00282            
1 69267U 26118A   26204.25002315 -.00092847  00000+0 -75367-2 0  9991
2 69267  51.8873 242.0767 0010541 338.9767  47.4757 14.99563482  5747
KUIPER-00383            
1 69268U 26118B   26204.25002315 -.01054235  00000+0 -62630-1 0  9990
2 69268  51.8791 240.8030 0009802 325.2973  24.1744 15.13470918  3229
KUIPER-00527            
1 69269U 26118C   26204.25002315 -.00160608  00000+0 -97514-2 0  9992
2 69269  51.8854 240.8129 0008068 331.1495 325.2522 15.10765111  3180
KUIPER-00562            
1 69270U 26118D   26203.33106414  .00025609  00000+0  67784-3 0  9993
2 69270  51.8710 242.9713 0000878 359.1406   0.9579 15.38210507  9390
KUIPER-00570            
1 69271U 26118E   26204.25002315 -.00056683  00000+0 -62015-2 0  9990
2 69271  51.8976 243.9815 0007321 350.4643 117.5037 14.87572255  4861
