{"fetched_at":"2026-07-23T17:55:06.836Z","source":"https://celestrak.org/NORAD/elements/gp.php?GROUP=kuiper&FORMAT=JSON","constellation":"kuiper","records":[{"OBJECT_NAME":"KUIPER-00438","OBJECT_ID":"2026-098X","EPOCH":"2026-07-23T06:00:02.000160","CLASSIFICATION_TYPE":"U","MEAN_MOTION":14.98460611,"ECCENTRICITY":0.00046523,"INCLINATION":51.8943,"RA_OF_ASC_NODE":257.028,"ARG_OF_PERICENTER":354.4681,"MEAN_ANOMALY":332.6325,"EPHEMERIS_TYPE":0,"NORAD_CAT_ID":68940,"ELEMENT_SET_NO":999,"REV_AT_EPOCH":572,"BSTAR":-0.0062847553,"MEAN_MOTION_DOT":-0.00075382,"MEAN_MOTION_DDOT":0},{"OBJECT_NAME":"KUIPER-00439","OBJECT_ID":"2026-098Y","EPOCH":"2026-07-23T06:00:02.000160","CLASSIFICATION_TYPE":"U","MEAN_MOTION":15.0175555,"ECCENTRICITY":0.000495,"INCLINATION":51.9013,"RA_OF_ASC_NODE":257.0438,"ARG_OF_PERICENTER":300.3057,"MEAN_ANOMALY":80.4353,"EPHEMERIS_TYPE":0,"NORAD_CAT_ID":68941,"ELEMENT_SET_NO":999,"REV_AT_EPOCH":546,"BSTAR":-0.013275874,"MEAN_MOTION_DOT":-0.00170949,"MEAN_MOTION_DDOT":0},{"OBJECT_NAME":"KUIPER-00440","OBJECT_ID":"2026-098Z","EPOCH":"2026-07-22T08:16:31.373184","CLASSIFICATION_TYPE":"U","MEAN_MOTION":15.31567203,"ECCENTRICITY":0.0002642,"INCLINATION":51.8775,"RA_OF_ASC_NODE":259.3741,"ARG_OF_PERICENTER":328.5179,"MEAN_ANOMALY":31.5647,"EPHEMERIS_TYPE":0,"NORAD_CAT_ID":68942,"ELEMENT_SET_NO":999,"REV_AT_EPOCH":1273,"BSTAR":0.00074261545,"MEAN_MOTION_DOT":0.00022675,"MEAN_MOTION_DDOT":0},{"OBJECT_NAME":"KUIPER-00442","OBJECT_ID":"2026-098AA","EPOCH":"2026-07-22T00:00:02.000160","CLASSIFICATION_TYPE":"U","MEAN_MOTION":15.28453268,"ECCENTRICITY":0.00027568,"INCLINATION":51.8808,"RA_OF_ASC_NODE":260.5206,"ARG_OF_PERICENTER":278.3143,"MEAN_ANOMALY":218.8422,"EPHEMERIS_TYPE":0,"NORAD_CAT_ID":68943,"ELEMENT_SET_NO":999,"REV_AT_EPOCH":567,"BSTAR":0.0016464502,"MEAN_MOTION_DOT":0.0004619,"MEAN_MOTION_DDOT":0},{"OBJECT_NAME":"KUIPER-00446","OBJECT_ID":"2026-098AB","EPOCH":"2026-07-23T06:00:02.000160","CLASSIFICATION_TYPE":"U","MEAN_MOTION":15.11455117,"ECCENTRICITY":0.00025612,"INCLINATION":51.892,"RA_OF_ASC_NODE":255.4545,"ARG_OF_PERICENTER":268.2746,"MEAN_ANOMALY":142.8126,"EPHEMERIS_TYPE":0,"NORAD_CAT_ID":68944,"ELEMENT_SET_NO":999,"REV_AT_EPOCH":541,"BSTAR":-0.071492016,"MEAN_MOTION_DOT":-0.01128708,"MEAN_MOTION_DDOT":0},{"OBJECT_NAME":"KUIPER-00451","OBJECT_ID":"2026-098AC","EPOCH":"2026-07-23T04:47:33.513216","CLASSIFICATION_TYPE":"U","MEAN_MOTION":14.76391203,"ECCENTRICITY":0.00007023,"INCLINATION":51.8979,"RA_OF_ASC_NODE":263.819,"ARG_OF_PERICENTER":37.1399,"MEAN_ANOMALY":322.9611,"EPHEMERIS_TYPE":0,"NORAD_CAT_ID":68945,"ELEMENT_SET_NO":999,"REV_AT_EPOCH":1274,"BSTAR":0.00024158144,"MEAN_MOTION_DOT":0.0000148,"MEAN_MOTION_DDOT":0},{"OBJECT_NAME":"KUIPER-00452","OBJECT_ID":"2026-098AD","EPOCH":"2026-07-23T06:00:02.000160","CLASSIFICATION_TYPE":"U","MEAN_MOTION":15.1937138,"ECCENTRICITY":0.00030099,"INCLINATION":51.8835,"RA_OF_ASC_NODE":254.0108,"ARG_OF_PERICENTER":290.2504,"MEAN_ANOMALY":179.0769,"EPHEMERIS_TYPE":0,"NORAD_CAT_ID":68946,"ELEMENT_SET_NO":999,"REV_AT_EPOCH":513,"BSTAR":-0.060030101,"MEAN_MOTION_DOT":-0.01183608,"MEAN_MOTION_DDOT":0},{"OBJECT_NAME":"KUIPER-00453","OBJECT_ID":"2026-098AE","EPOCH":"2026-07-23T06:00:02.000160","CLASSIFICATION_TYPE":"U","MEAN_MOTION":15.29303786,"ECCENTRICITY":0.00040232,"INCLINATION":51.8791,"RA_OF_ASC_NODE":253.1095,"ARG_OF_PERICENTER":358.2201,"MEAN_ANOMALY":191.0789,"EPHEMERIS_TYPE":0,"NORAD_CAT_ID":68947,"ELEMENT_SET_NO":999,"REV_AT_EPOCH":587,"BSTAR":-0.00026896782,"MEAN_MOTION_DOT":-0.00008108,"MEAN_MOTION_DDOT":0},{"OBJECT_NAME":"KUIPER-00454","OBJECT_ID":"2026-098AF","EPOCH":"2026-07-23T04:05:39.922080","CLASSIFICATION_TYPE":"U","MEAN_MOTION":14.764417,"ECCENTRICITY":0.00036851,"INCLINATION":51.8994,"RA_OF_ASC_NODE":265.2929,"ARG_OF_PERICENTER":162.3879,"MEAN_ANOMALY":197.721,"EPHEMERIS_TYPE":0,"NORAD_CAT_ID":68948,"ELEMENT_SET_NO":999,"REV_AT_EPOCH":1272,"BSTAR":0.00024646746,"MEAN_MOTION_DOT":0.00001515,"MEAN_MOTION_DDOT":0},{"OBJECT_NAME":"KUIPER-00455","OBJECT_ID":"2026-098AG","EPOCH":"2026-07-23T06:00:02.000160","CLASSIFICATION_TYPE":"U","MEAN_MOTION":14.79980996,"ECCENTRICITY":0.00018236,"INCLINATION":51.8992,"RA_OF_ASC_NODE":263.6948,"ARG_OF_PERICENTER":297.7923,"MEAN_ANOMALY":99.9398,"EPHEMERIS_TYPE":0,"NORAD_CAT_ID":68949,"ELEMENT_SET_NO":999,"REV_AT_EPOCH":497,"BSTAR":-0.0019805788,"MEAN_MOTION_DOT":-0.00015303,"MEAN_MOTION_DDOT":0},{"OBJECT_NAME":"KUIPER-00458","OBJECT_ID":"2026-098AH","EPOCH":"2026-07-23T06:00:02.000160","CLASSIFICATION_TYPE":"U","MEAN_MOTION":15.28961711,"ECCENTRICITY":0.00025588,"INCLINATION":51.8791,"RA_OF_ASC_NODE":253.3868,"ARG_OF_PERICENTER":336.5241,"MEAN_ANOMALY":50.1966,"EPHEMERIS_TYPE":0,"NORAD_CAT_ID":68950,"ELEMENT_SET_NO":999,"REV_AT_EPOCH":548,"BSTAR":-0.0012744848,"MEAN_MOTION_DOT":-0.00036547,"MEAN_MOTION_DDOT":0},{"OBJECT_NAME":"KUIPER-00282","OBJECT_ID":"2026-118A","EPOCH":"2026-07-23T06:00:02.000160","CLASSIFICATION_TYPE":"U","MEAN_MOTION":14.99563482,"ECCENTRICITY":0.00105411,"INCLINATION":51.8873,"RA_OF_ASC_NODE":242.0767,"ARG_OF_PERICENTER":338.9767,"MEAN_ANOMALY":47.4757,"EPHEMERIS_TYPE":0,"NORAD_CAT_ID":69267,"ELEMENT_SET_NO":999,"REV_AT_EPOCH":574,"BSTAR":-0.0075367276,"MEAN_MOTION_DOT":-0.00092847,"MEAN_MOTION_DDOT":0},{"OBJECT_NAME":"KUIPER-00383","OBJECT_ID":"2026-118B","EPOCH":"2026-07-23T06:00:02.000160","CLASSIFICATION_TYPE":"U","MEAN_MOTION":15.13470918,"ECCENTRICITY":0.00098028,"INCLINATION":51.8791,"RA_OF_ASC_NODE":240.803,"ARG_OF_PERICENTER":325.2973,"MEAN_ANOMALY":24.1744,"EPHEMERIS_TYPE":0,"NORAD_CAT_ID":69268,"ELEMENT_SET_NO":999,"REV_AT_EPOCH":322,"BSTAR":-0.062629892,"MEAN_MOTION_DOT":-0.01054235,"MEAN_MOTION_DDOT":0},{"OBJECT_NAME":"KUIPER-00527","OBJECT_ID":"2026-118C","EPOCH":"2026-07-23T06:00:02.000160","CLASSIFICATION_TYPE":"U","MEAN_MOTION":15.10765111,"ECCENTRICITY":0.0008068,"INCLINATION":51.8854,"RA_OF_ASC_NODE":240.8129,"ARG_OF_PERICENTER":331.1495,"MEAN_ANOMALY":325.2522,"EPHEMERIS_TYPE":0,"NORAD_CAT_ID":69269,"ELEMENT_SET_NO":999,"REV_AT_EPOCH":318,"BSTAR":-0.00975144,"MEAN_MOTION_DOT":-0.00160608,"MEAN_MOTION_DDOT":0},{"OBJECT_NAME":"KUIPER-00562","OBJECT_ID":"2026-118D","EPOCH":"2026-07-22T07:56:43.941696","CLASSIFICATION_TYPE":"U","MEAN_MOTION":15.38210507,"ECCENTRICITY":0.0000878,"INCLINATION":51.871,"RA_OF_ASC_NODE":242.9713,"ARG_OF_PERICENTER":359.1406,"MEAN_ANOMALY":0.9579,"EPHEMERIS_TYPE":0,"NORAD_CAT_ID":69270,"ELEMENT_SET_NO":999,"REV_AT_EPOCH":939,"BSTAR":0.00067784355,"MEAN_MOTION_DOT":0.00025609,"MEAN_MOTION_DDOT":0},{"OBJECT_NAME":"KUIPER-00570","OBJECT_ID":"2026-118E","EPOCH":"2026-07-23T06:00:02.000160","CLASSIFICATION_TYPE":"U","MEAN_MOTION":14.87572255,"ECCENTRICITY":0.00073212,"INCLINATION":51.8976,"RA_OF_ASC_NODE":243.9815,"ARG_OF_PERICENTER":350.4643,"MEAN_ANOMALY":117.5037,"EPHEMERIS_TYPE":0,"NORAD_CAT_ID":69271,"ELEMENT_SET_NO":999,"REV_AT_EPOCH":486,"BSTAR":-0.0062015092,"MEAN_MOTION_DOT":-0.00056683,"MEAN_MOTION_DDOT":0}]}
